241P/LINEAR,e,21.0584,305.4938,111.0229,4.947735,0.0895559,0.61086313,311.6305,02/01.0/2020,2000,g 13.5,4.0
# From MPC 81861
242P/Spahr,e,32.4798,180.5094,246.3070,5.476035,0.0769139,0.27786371,221.4555,02/01.0/2020,2000,g  8.0,4.0
# From MPC111774
243P/NEAT,e,7.6415,87.6569,283.5368,3.831861,0.1313982,0.35963343,68.8492,02/01.0/2020,2000,g 12.5,4.0
# From MPC 88331
244P/Scotti,e,2.2589,353.9916,92.8428,4.895764,0.0909857,0.19811217,267.2713,02/01.0/2020,2000,g  9.0,4.0
# From MPC111774
245P/WISE,e,21.1967,316.6590,316.7827,4.041659,0.1213011,0.45772207,87.6023,02/01.0/2020,2000,g 14.0,4.0
# From MPC114608
246P/NEAT,e,15.9871,78.7489,176.2300,4.016326,0.1224505,0.28679140,312.5454,02/01.0/2020,2000,g 10.5,4.0
# From MPC112394
247P/LINEAR,e,13.6594,54.0124,47.4716,3.970309,0.1245855,0.62475153,53.0659,02/01.0/2020,2000,g 16.5,2.0
# From MPC 75730
248P/Gibbs,e,6.3464,207.7469,209.9418,5.989795,0.0672336,0.63779786,221.7241,02/01.0/2020,2000,g 14.0,4.0
# From MPC105243
249P/LINEAR,e,8.3969,239.1788,65.6069,2.761375,0.2147909,0.82010105,327.8882,02/01.0/2020,2000,g 15.5,4.0
# From MPC110497
250P/Larson,e,13.2711,73.6847,45.6412,3.745832,0.1359508,0.40590777,98.9778,02/01.0/2020,2000,g 14.5,4.0
# From MPC104795
251P/LINEAR,e,23.4106,219.4056,31.2432,3.509350,0.1499216,0.50565992,139.3392,02/01.0/2020,2000,g 16.5,2.0
# From MPC102956
252P/LINEAR,e,10.4124,190.9558,343.3255,3.049008,0.1851255,0.67209867,262.6383,02/01.0/2020,2000,g 17.5,4.0
# From MPC112394
253P/PANSTARRS,e,4.9418,146.8738,230.6690,3.468562,0.1525738,0.41322255,96.7764,02/01.0/2020,2000,g 14.5,4.0
# From MPC 81473
254P/McNaught,e,32.5615,129.1719,219.4132,4.621231,0.0992128,0.32114163,336.0635,02/01.0/2020,2000,g 11.0,4.0
# From NK 2214
255P/Levy,e,19.7336,279.1712,180.4621,2.980522,0.1915427,0.70190826,185.1997,02/01.0/2020,2000,g  9.0,4.0
# From MPC 84027
256P/LINEAR,e,27.6382,81.3490,124.3181,4.635736,0.0987475,0.41861130,247.9184,02/01.0/2020,2000,g 14.0,2.0
# From MPC114608
257P/Catalina,e,20.2245,207.7708,117.6596,3.763789,0.1349790,0.43088177,329.9215,02/01.0/2020,2000,g 11.5,4.0
# From MPC 79655
258P/PANSTARRS,e,6.7456,126.2470,26.1237,4.403009,0.1066792,0.20928677,345.1033,02/01.0/2020,2000,g 13.0,4.0
# From MPC106349
259P/Garradd,e,15.8878,51.4694,257.5444,2.731393,0.2183373,0.33829606,198.7862,02/01.0/2020,2000,g 15.5,4.0
# From MPC118098
260P/McNaught,e,15.0518,349.3525,18.3968,3.621922,0.1429866,0.60884371,20.5951,02/01.0/2020,2000,g 13.5,4.0
# From MPEC 2019-TG9
261P/Larson,e,6.0760,291.1626,67.1227,3.489021,0.1512337,0.42292160,34.3753,02/01.0/2020,2000,g 14.0,4.0
# From MPC 82322
262P/McNaught-Russell,e,29.1499,217.9166,171.0005,6.877850,0.0546418,0.81483708,143.1224,02/01.0/2020,2000,g 13.5,4.0
# From MPC 89018
263P/Gibbs,e,11.5501,105.8165,34.4474,3.056291,0.1844642,0.58902289,157.4805,02/01.0/2020,2000,g  9.0,4.0
# From MPC114608
264P/Larsen,e,25.1457,220.8980,346.6439,3.896379,0.1281481,0.37417565,23.0685,02/01.0/2020,2000,g 13.0,4.0
# From MPC 79870
265P/LINEAR,e,14.3579,343.0078,33.4111,4.252541,0.1123909,0.64795418,317.9670,02/01.0/2020,2000,g 14.5,4.0
# From MPEC 2019-TG9
266P/Christensen,e,3.4258,5.0059,97.8582,3.535546,0.1482584,0.33950062,348.3535,02/01.0/2020,2000,g 12.5,4.0
# From MPC114608
267P/LONEOS,e,6.1375,228.6759,114.0815,3.212332,0.1711881,0.61386439,95.6231,02/01.0/2020,2000,g 19.5,4.0
# From MPC 92277
268P/Bernardi,e,16.1288,127.5826,0.1291,4.553154,0.1014461,0.47046643,176.7468,02/01.0/2020,2000,g 14.0,4.0
# From MPC104795
269P/Jedicke,e,7.0705,241.7030,226.0146,7.082508,0.0522906,0.43076088,101.8439,02/01.0/2020,2000,g 10.0,4.0
# From MPC 88332
270P/Gehrels,e,2.9169,222.9598,209.9596,6.670745,0.0572061,0.46680546,138.9651,02/01.0/2020,2000,g  8.0,4.0
# From MPC 92277
271P/van Houten-Lemmon,e,6.8636,9.2929,36.5196,7.051169,0.0526396,0.39299746,126.1941,02/01.0/2020,2000,g 11.0,4.0
# From MPC 81862
272P/NEAT,e,18.0764,109.4661,28.0195,4.453137,0.1048830,0.45416721,265.8637,02/01.0/2020,2000,g 16.0,2.0
# From MPC 82723
273P/Pons-Gambart,e,136.7242,320.4003,20.2811,31.66891,0.0055304,0.97404154,0.0000,12/16.8084/2012,2000,g 11.5,4.0
# From MPC 88332
274P/Tombaugh-Tenagra,e,15.8177,81.3364,38.5364,4.369989,0.1078906,0.43865223,273.9162,02/01.0/2020,2000,g 13.0,4.0
# From MPC 81862
275P/Hermann,e,21.2910,348.7559,174.1186,5.770497,0.0711024,0.71274813,184.4965,02/01.0/2020,2000,g 17.0,4.0
# From MPC114609
276P/Vorobjov,e,14.8287,211.4852,200.0805,5.308392,0.0805860,0.26763146,216.2911,02/01.0/2020,2000,g 11.5,4.0
# From MPC105243
277P/LINEAR,e,16.7793,276.3460,152.2965,3.852056,0.1303663,0.50546702,316.5639,02/01.0/2020,2000,g 14.0,4.0
# From MPC105243
278P/McNaught,e,6.6850,15.4496,238.0773,3.692979,0.1388797,0.43484072,328.8840,02/01.0/2020,2000,g 14.0,4.0
# From MPC100285
279P/La Sagra,e,5.0506,346.2235,5.7558,3.576248,0.1457346,0.39779938,188.8860,02/01.0/2020,2000,g 14.0,4.0
# From MPC 89013
280P/Larsen,e,11.7735,131.4014,104.7895,4.528788,0.1022660,0.41818515,229.1163,02/01.0/2020,2000,g 12.5,4.0
# From MPC 83145
281P/MOSS,e,4.7198,87.1707,26.9582,4.868247,0.0917582,0.17148427,259.1377,02/01.0/2020,2000,g 11.0,4.0
# From MPC xxxxx
282P/,e,5.8094,9.3046,217.4588,4.245889,0.1126552,0.18941114,288.9636,02/01.0/2020,2000,g 13.5,2.0
# From MPEC 2013-M31
283P/Spacewatch,e,14.4539,161.1457,22.2793,4.139008,0.1170468,0.48513901,291.5252,02/01.0/2020,2000,g  9.0,4.0
# From MPC 93589
284P/McNaught,e,11.8585,144.2839,202.6886,3.674076,0.1399529,0.37580669,277.3562,02/01.0/2020,2000,g 13.0,4.0
# From MPC 85339
285P/LINEAR,e,25.0232,185.4819,178.4072,4.509138,0.1029352,0.61786868,249.1418,02/01.0/2020,2000,g 15.0,4.0
# From MPC 90771
286P/Christensen,e,17.0448,283.9646,24.7318,4.112005,0.1182017,0.42509761,261.7116,02/01.0/2020,2000,g 14.0,4.0
# From MPC 96868
287P/Christensen,e,16.3173,139.0367,188.8081,4.168722,0.1157976,0.27032244,215.3368,02/01.0/2020,2000,g 13.5,4.0
# From MPC xxxxx
288P/,e,3.2404,83.1867,280.7988,3.046991,0.1853094,0.20136615,218.7953,02/01.0/2020,2000,g 16.0,2.0
# From MPC118844
289P/Blanpain,e,5.8940,68.8953,9.8854,3.048865,0.1851385,0.68548240,7.7762,02/01.0/2020,2000,g  2.5,4.0
# From MPC 95214
290P/Jager,e,19.6179,302.9532,181.3035,6.134921,0.0648620,0.64756863,139.4492,02/01.0/2020,2000,g 10.5,4.0
# From MPC 89314
291P/NEAT,e,6.3434,238.2729,174.1714,4.503033,0.1031446,0.43744793,237.1743,02/01.0/2020,2000,g 13.0,4.0
# From MPC115887
292P/Li,e,24.2519,91.0029,319.4875,6.111568,0.0652342,0.58741311,143.0687,02/01.0/2020,2000,g 12.5,4.0
# From MPC 92278
293P/Spacewatch,e,9.0572,78.4111,41.1001,3.642841,0.1417567,0.41816523,314.3001,02/01.0/2020,2000,g 14.5,4.0
# From MPC 89013
294P/LINEAR,e,18.2149,312.5976,235.5339,3.204760,0.1717951,0.59419311,10.8701,02/01.0/2020,2000,g 15.5,4.0
# From MPC 93589
295P/LINEAR,e,21.0737,7.4214,72.9803,5.306425,0.0806308,0.61606086,168.9513,02/01.0/2020,2000,g 12.0,4.0
# From MPC 92278
296P/Garradd,e,25.2351,263.6405,350.1140,3.496793,0.1507298,0.47850105,325.3462,02/01.0/2020,2000,g 14.0,4.0
# From MPC102956
297P/Beshore,e,10.3286,97.6611,132.4454,3.443613,0.1542349,0.31939608,304.9866,02/01.0/2020,2000,g 15.0,4.0
# From MPC114609
298P/Christensen,e,7.8704,52.8302,100.6957,3.593781,0.1446694,0.38697248,328.4050,02/01.0/2020,2000,g 15.0,4.0
# From MPC101100
299P/Catalina-PANSTARRS,e,10.4779,271.6228,323.8948,4.383155,0.1074049,0.28218794,193.5679,02/01.0/2020,2000,g 11.5,4.0
# From MPC114609
300P/Catalina,e,5.6765,95.6700,222.8632,2.700036,0.2221518,0.69162080,101.2747,02/01.0/2020,2000,g 16.0,4.0
# From MPC 89014
301P/LINEAR-NEAT,e,10.3477,351.1801,193.7316,5.736960,0.0717268,0.58598534,142.0118,02/01.0/2020,2000,g 13.0,4.0
# From MPC115887
302P/Lemmon-PANSTARRS,e,6.0337,121.7535,208.1621,4.278165,0.1113827,0.22958850,152.7022,02/01.0/2020,2000,g 12.5,4.0
# From MPC 92278
303P/NEAT,e,7.0155,347.9719,356.8470,5.050429,0.0868384,0.50981385,168.0537,02/01.0/2020,2000,g 13.5,4.0
# From MPC 92987
304P/Ory,e,2.6069,58.9456,335.1998,3.151287,0.1761863,0.60055203,325.9171,02/01.0/2020,2000,g 16.5,4.0
# From MPC101100
305P/Skiff,e,11.6390,240.1401,147.2650,4.645635,0.0984320,0.69256078,187.4484,02/01.0/2020,2000,g 18.0,4.0
# From MPC 92278
306P/LINEAR,e,8.3104,341.3840,0.8009,3.121436,0.1787197,0.59317835,1.6336,02/01.0/2020,2000,g 19.0,4.0
# From MPC 92278
307P/LINEAR,e,4.4302,158.1183,222.1850,5.796247,0.0706291,0.67376793,132.0502,02/01.0/2020,2000,g 15.0,4.0
# From MPC109148
308P/Lagerkvist-Carsenty,e,4.8492,63.1183,333.6641,6.610079,0.0579955,0.36244060,100.5108,02/01.0/2020,2000,g 13.0,2.0
# From MPC 94284
309P/LINEAR,e,17.0258,10.1545,50.0079,4.370139,0.1078850,0.61765061,196.0220,02/01.0/2020,2000,g 15.0,4.0
# From MPC 98566
310P/Hill,e,13.1291,8.9313,31.9073,4.176903,0.1154576,0.42174045,202.6580,02/01.0/2020,2000,g 13.5,4.0
# From MPC109593
311P/PANSTARRS,e,4.9700,279.2274,144.5619,2.188467,0.3044346,0.11526748,284.0776,02/01.0/2020,2000,g 17.0,4.0
# From MPC 92279
312P/NEAT,e,19.7617,144.6816,207.5242,3.468647,0.1525682,0.42832671,323.8465,02/01.0/2020,2000,g 16.0,4.0
# From MPEC 2019-TG9
313P/Gibbs,e,10.9834,105.9723,254.5967,3.161212,0.1753572,0.23481682,347.0001,02/01.0/2020,2000,g 15.0,4.0
# From MPC105243
314P/Montani,e,3.9791,267.6193,214.2442,7.277893,0.0501991,0.41654501,60.7093,02/01.0/2020,2000,g  9.5,4.0
# From MPC115888
315P/LONEOS,e,17.8802,69.2849,65.6478,4.946682,0.0895846,0.52277062,103.3333,02/01.0/2020,2000,g 11.0,4.0
# From MPC 92279
316P/LONEOS-Christensen,e,9.8925,246.7717,193.9023,4.342372,0.1089215,0.16195481,169.2521,02/01.0/2020,2000,g 13.5,4.0
# From MPC102103
317P/WISE,e,11.9509,275.5196,334.8955,2.965600,0.1929901,0.57043885,314.0351,02/01.0/2020,2000,g 17.5,4.0
# From MPC102103
318P/McNaught-Hartley,e,17.8713,35.6677,313.0953,7.496579,0.0480186,0.67470801,74.9933,02/01.0/2020,2000,g  8.5,6.0
# From MPC 97499
319P/Catalina-McNaught,e,15.0949,111.3780,203.6030,3.569518,0.1461469,0.66635998,244.6199,02/01.0/2020,2000,g 15.0,4.0
# From MPC 96281
